SWARM A                 
1 39452U 13067B   26165.25160240  .00010240  00000+0  17636-3 0  9992
2 39452  87.3334  57.3328 0003015  95.0940 265.0666 15.50902833705792
SWARM C                 
1 39453U 13067C   26165.18696251  .00010455  00000+0  18011-3 0  9997
2 39453  87.3333  55.9378 0003010  95.5553 264.6051 15.50899593705747
BRITE-CA1 (TORONTO)     
1 40020U 14033L   26165.32000207  .00000628  00000+0  10220-3 0  9994
2 40020  97.9735 294.3008 0077274 286.3637  72.9085 14.72673070641791
OCO 2                   
1 40059U 14035A   26165.27135786  .00000348  00000+0  87357-4 0  9998
2 40059  98.2018 106.6088 0001499  86.3355 273.8015 14.57109108635624
BRITE-PL2 (HEWELIUSZ)   
1 40119U 14049B   26165.29353093  .00001406  00000+0  13523-3 0  9994
2 40119  97.9095 277.2712 0015195 117.0513 243.2260 14.94584843641014
MMS 1                   
1 40482U 15011A   26165.33336806 -.00000478  00000+0  00000+0 0  9996
2 40482  72.1368 348.8137 8316612 167.2926   7.5242  0.28484670  1393
MMS 2                   
1 40483U 15011B   26165.33336806 -.00000478  00000+0  00000+0 0  9997
2 40483  72.1369 348.8160 8317389 167.2981   7.5128  0.28484911  1395
MMS 3                   
1 40484U 15011C   26165.33336806 -.00000478  00000+0  00000+0 0  9998
2 40484  72.1400 348.8205 8316564 167.2926   7.5086  0.28484982  1396
MMS 4                   
1 40485U 15011D   26165.33336806 -.00000477  00000+0  00000+0 0  9998
2 40485  72.1361 348.8163 8316162 167.3003   7.4971  0.28485225  1390
ASTROSAT                
1 40930U 15052A   26164.99689023  .00001495  00000+0  10025-3 0  9993
2 40930   5.9956 178.3215 0008040 345.5019  14.4878 14.82502540579350
DAMPE                   
1 41173U 15078A   26165.29220933  .00001503  00000+0  53026-4 0  9995
2 41173  97.4554 170.7450 0013811  86.1206 274.1614 15.30779298584107
PISAT                   
1 41784U 16059B   26165.28315104  .00000775  00000+0  13956-3 0  9994
2 41784  97.8179 165.8607 0028148 212.2914 147.6570 14.68979047519318
HXMT (HUIYAN)           
1 42758U 17034A   26165.30586228  .00003289  00000+0  16652-3 0  9999
2 42758  43.0127 199.0855 0030306 128.2965 232.0616 15.18463002497221
FLYING LAPTOP           
1 42831U 17042G   26165.31922809  .00003827  00000+0  30212-3 0  9996
2 42831  97.4670 320.9621 0019531 131.2063 229.0850 15.01129762486021
ZHANGHENG 1-01 (CSES-1) 
1 43194U 18015C   26165.30972493  .00006279  00000+0  28726-3 0  9994
2 43194  97.6860 330.9101 0017011 277.2460  82.6841 15.20778961464205
SALSAT                  
1 46495U 20068K   26165.00581426  .00008178  00000+0  28632-3 0  9997
2 46495  97.8843 167.8766 0008281 321.5879  38.4769 15.29759103314876
IXPE                    
1 49954U 21121A   26165.33336806  .00009988  00000+0  53759-3 0  9995
2 49954   0.2322 339.3582 0007330  32.2240 203.0984 15.10227973  5896
SMILE                   
1 69123U 26109A   26144.65318427 -.00001976  00000+0 -42379-3 0  9994
2 69123  70.0007 229.2745 0009123 259.5159 100.4951 14.57062785   802
