OBJECT_NAME,OBJECT_ID,EPOCH,MEAN_MOTION,ECCENTRICITY,INCLINATION,RA_OF_ASC_NODE,ARG_OF_PERICENTER,MEAN_ANOMALY,EPHEMERIS_TYPE,CLASSIFICATION_TYPE,NORAD_CAT_ID,ELEMENT_SET_NO,REV_AT_EPOCH,BSTAR,MEAN_MOTION_DOT,MEAN_MOTION_DDOT
SWARM A,2013-067B,2026-06-14T06:02:18.447360,15.50902833,.00030157,87.3334,57.3328,95.0940,265.0666,0,U,39452,999,70579,.17636062E-3,.1024E-3,0
SWARM C,2013-067C,2026-06-14T04:29:13.560864,15.50899593,.00030109,87.3333,55.9378,95.5553,264.6051,0,U,39453,999,70574,.18010791E-3,.10455E-3,0
BRITE-CA1 (TORONTO),2014-033L,2026-06-14T07:40:48.178848,14.72673070,.00772746,97.9735,294.3008,286.3637,72.9085,0,U,40020,999,64179,.10219606E-3,.628E-5,0
OCO 2,2014-035A,2026-06-14T06:30:45.319104,14.57109108,.00014999,98.2018,106.6088,86.3355,273.8015,0,U,40059,999,63562,.87356529E-4,.348E-5,0
BRITE-PL2 (HEWELIUSZ),2014-049B,2026-06-14T07:02:41.072352,14.94584843,.00151952,97.9095,277.2712,117.0513,243.2260,0,U,40119,999,64101,.13523061E-3,.1406E-4,0
MMS 1,2015-011A,2026-06-14T08:00:03.000384,0.28484670,.83166128,72.1368,348.8137,167.2926,7.5242,0,U,40482,999,139,0,-.478E-5,0
MMS 2,2015-011B,2026-06-14T08:00:03.000384,0.28484911,.83173891,72.1369,348.8160,167.2981,7.5128,0,U,40483,999,139,0,-.478E-5,0
MMS 3,2015-011C,2026-06-14T08:00:03.000384,0.28484982,.83165645,72.1400,348.8205,167.2926,7.5086,0,U,40484,999,139,0,-.478E-5,0
MMS 4,2015-011D,2026-06-14T08:00:03.000384,0.28485225,.83161622,72.1361,348.8163,167.3003,7.4971,0,U,40485,999,139,0,-.477E-5,0
ASTROSAT,2015-052A,2026-06-13T23:55:31.315872,14.82502540,.000804,5.9956,178.3215,345.5019,14.4878,0,U,40930,999,57935,.10025077E-3,.1495E-4,0
DAMPE,2015-078A,2026-06-14T07:00:46.886112,15.30779298,.00138119,97.4554,170.7450,86.1206,274.1614,0,U,41173,999,58410,.53026478E-4,.1503E-4,0
PISAT,2016-059B,2026-06-14T06:47:44.249856,14.68979047,.0028148,97.8179,165.8607,212.2914,147.6570,0,U,41784,999,51931,.13956084E-3,.775E-5,0
HXMT (HUIYAN),2017-034A,2026-06-14T07:20:26.500992,15.18463002,.00303065,43.0127,199.0855,128.2965,232.0616,0,U,42758,999,49722,.16651878E-3,.3289E-4,0
FLYING LAPTOP,2017-042G,2026-06-14T07:39:41.306976,15.01129762,.00195319,97.4670,320.9621,131.2063,229.0850,0,U,42831,999,48602,.30211675E-3,.3827E-4,0
ZHANGHENG 1-01 (CSES-1),2018-015C,2026-06-14T07:26:00.233952,15.20778961,.00170118,97.6860,330.9101,277.2460,82.6841,0,U,43194,999,46420,.28725814E-3,.6279E-4,0
SALSAT,2020-068K,2026-06-14T00:08:22.352064,15.29759103,.0008281,97.8843,167.8766,321.5879,38.4769,0,U,46495,999,31487,.28632437E-3,.8178E-4,0
IXPE,2021-121A,2026-06-14T08:00:03.000384,15.10227973,.000733,0.2322,339.3582,32.2240,203.0984,0,U,49954,999,589,.53759092E-3,.9988E-4,0
SMILE,2026-109A,2026-05-24T15:40:35.120928,14.57062785,.00091232,70.0007,229.2745,259.5159,100.4951,0,U,69123,999,80,-.42378883E-3,-.1976E-4,0
